[{"OBJECT_NAME":"ITAMSAT (IO-26)","OBJECT_ID":"1993-061D","EPOCH":"2026-03-09T18:51:40.558176","MEAN_MOTION":14.31337175,"ECCENTRICITY":0.00091856,"INCLINATION":98.6929,"RA_OF_ASC_NODE":136.1036,"ARG_OF_PERICENTER":22.8845,"MEAN_ANOMALY":337.2746,"EPHEMERIS_TYPE":0,"CLASSIFICATION_TYPE":"U","NORAD_CAT_ID":22826,"ELEMENT_SET_NO":999,"REV_AT_EPOCH":69309,"BSTAR":7.3937292e-5,"MEAN_MOTION_DOT":1.51e-6,"MEAN_MOTION_DDOT":0},{"OBJECT_NAME":"CZ-6A DEB","OBJECT_ID":"2024-140MJ","EPOCH":"2026-03-09T23:14:25.670688","MEAN_MOTION":14.42346478,"ECCENTRICITY":0.0051771,"INCLINATION":88.7762,"RA_OF_ASC_NODE":268.2344,"ARG_OF_PERICENTER":291.8499,"MEAN_ANOMALY":67.7202,"EPHEMERIS_TYPE":0,"CLASSIFICATION_TYPE":"U","NORAD_CAT_ID":60983,"ELEMENT_SET_NO":999,"REV_AT_EPOCH":8143,"BSTAR":0.00046351959,"MEAN_MOTION_DOT":1.57e-5,"MEAN_MOTION_DDOT":0}]
